NORAD_CAT_ID,OBJECT_NAME,OBJECT_TYPE,EPOCH,MEAN_MOTION,ECCENTRICITY,INCLINATION,RA_OF_ASC_NODE,ARG_OF_PERICENTER,MEAN_ANOMALY,BSTAR,MEAN_MOTION_DOT,MEAN_MOTION_DDOT,TLE_LINE0,TLE_LINE1,TLE_LINE2,SEMIMAJOR_AXIS,PERIOD,APOGEE,PERIGEE,DECAYED
52091.0,STARLINK-3713,PAYLOAD,2024-05-11 12:25:54,15.08914706,0.0001223,53.2144,204.17,88.2121,271.9011,0.0023849,0.0003795,0.0,0 STARLINK-3713,1 52091U 22029D   24132.51798814  .00037950  00000-0  23849-2 0  9999,2 52091  53.2144 204.1700 0001223  88.2121 271.9011 15.08914706119937,6917.652,95.433,540.363,538.671,0.0
52091.0,STARLINK-3713,PAYLOAD,2024-05-11 21:58:11,15.08918372,0.0001335,53.2142,202.3845,88.5587,271.5558,0.00099535,0.00015622,0.0,0 STARLINK-3713,1 52091U 22029D   24132.91541044  .00015622  00000-0  99535-3 0  9992,2 52091  53.2142 202.3845 0001335  88.5587 271.5558 15.08918372119999,6917.641,95.433,540.429,538.582,0.0
52091.0,STARLINK-3713,PAYLOAD,2024-05-12 12:16:43,15.08778496,0.0001226,53.2145,199.7098,110.9981,249.1142,0.00071904,0.00011155,0.0,0 STARLINK-3713,1 52091U 22029D   24133.51161326  .00011155  00000-0  71904-3 0  9997,2 52091  53.2145 199.7098 0001226 110.9981 249.1142 15.08778496120081,6918.068,95.441,540.782,539.085,0.0
52091.0,STARLINK-3713,PAYLOAD,2024-05-12 21:49:02,15.08827687,0.0001085,53.2145,197.9254,106.7919,253.3193,0.003416,0.0005448,0.0,0 STARLINK-3713,1 52091U 22029D   24133.90905625  .00054480  00000-0  34160-2 0  9998,2 52091  53.2145 197.9254 0001085 106.7919 253.3193 15.08827687120149,6917.918,95.438,540.534,539.032,0.0
52091.0,STARLINK-3713,PAYLOAD,2024-05-13 04:10:34,15.08877744,9.17e-05,53.2146,196.7356,93.9362,266.1735,0.0026612,0.00042364,0.0,0 STARLINK-3713,1 52091U 22029D   24134.17400742  .00042364  00000-0  26612-2 0  9999,2 52091  53.2146 196.7356 0000917  93.9362 266.1735 15.08877744120189,6917.765,95.435,540.264,538.996,0.0
52091.0,STARLINK-3713,PAYLOAD,2024-05-13 10:32:06,15.08856431,0.0001612,53.2149,195.5465,95.9341,264.1834,-0.00055153,-9.059e-05,0.0,0 STARLINK-3713,1 52091U 22029D   24134.43896353 -.00009059  00000-0 -55153-3 0  9994,2 52091  53.2149 195.5465 0001612  95.9341 264.1834 15.08856431120225,6917.83,95.437,540.81,538.58,0.0
52091.0,STARLINK-3713,PAYLOAD,2024-05-13 13:42:52,15.08855549,0.0001599,53.215,194.9518,95.9642,264.1533,-0.00052944,-8.708e-05,0.0,0 STARLINK-3713,1 52091U 22029D   24134.57144211 -.00008708  00000-0 -52944-3 0  9993,2 52091  53.2150 194.9518 0001599  95.9642 264.1533 15.08855549120244,6917.833,95.437,540.804,538.592,0.0
52091.0,STARLINK-3713,PAYLOAD,2024-05-14 04:01:21,15.08823932,0.0001807,53.2145,192.2729,101.4417,258.6778,0.00044891,6.86e-05,0.0,0 STARLINK-3713,1 52091U 22029D   24135.16760750  .00006860  00000-0  44891-3 0  9998,2 52091  53.2145 192.2729 0001807 101.4417 258.6778 15.08823932120338,6917.93,95.439,541.045,538.544,0.0
52091.0,STARLINK-3713,PAYLOAD,2024-05-14 10:22:55,15.08815093,0.0001444,53.2149,191.084,100.9853,259.1301,0.00015056,2.107e-05,0.0,0 STARLINK-3713,1 52091U 22029D   24135.43258117  .00002107  00000-0  15056-3 0  9998,2 52091  53.2149 191.0840 0001444 100.9853 259.1301 15.08815093120379,6917.957,95.439,540.82,538.823,0.0
52091.0,STARLINK-3713,PAYLOAD,2024-05-15 10:13:41,15.08838391,0.0001429,53.2143,186.624,88.9861,271.1295,-0.00019647,-3.413e-05,0.0,0 STARLINK-3713,1 52091U 22029D   24136.42617783 -.00003413  00000-0 -19647-3 0  9999,2 52091  53.2143 186.6240 0001429  88.9861 271.1295 15.08838391120523,6917.885,95.438,540.739,538.762,0.0
52091.0,STARLINK-3713,PAYLOAD,2024-05-16 10:04:29,15.08843268,0.0001444,53.215,182.1651,90.1215,269.9943,0.00049474,7.595e-05,0.0,0 STARLINK-3713,1 52091U 22029D   24137.41978735  .00007595  00000-0  49474-3 0  9990,2 52091  53.2150 182.1651 0001444  90.1215 269.9943 15.08843268120673,6917.87,95.437,540.734,538.736,0.0
52091.0,STARLINK-3713,PAYLOAD,2024-05-17 09:55:15,15.08860405,0.0001427,53.215,177.7048,90.9534,269.1621,0.00036879,5.589e-05,0.0,0 STARLINK-3713,1 52091U 22029D   24138.41337567  .00005589  00000-0  36879-3 0  9999,2 52091  53.2150 177.7048 0001427  90.9534 269.1621 15.08860405120820,6917.818,95.436,540.67,538.696,0.0
52091.0,STARLINK-3713,PAYLOAD,2024-05-17 19:27:33,15.0886725,0.0001324,53.2143,175.9188,74.0151,286.0987,0.000362,5.482e-05,0.0,0 STARLINK-3713,1 52091U 22029D   24138.81080816  .00005482  00000-0  36200-3 0  9995,2 52091  53.2143 175.9188 0001324  74.0151 286.0987 15.08867250120885,6917.797,95.436,540.578,538.746,0.0
52091.0,STARLINK-3713,PAYLOAD,2024-05-18 11:21:25,15.08848355,0.0001435,53.2147,172.9465,82.1777,277.9378,-4.7395e-05,-1.042e-05,0.0,0 STARLINK-3713,1 52091U 22029D   24139.47320837 -.00001042  00000-0 -47395-4 0  9996,2 52091  53.2147 172.9465 0001435  82.1777 277.9378 15.08848355120980,6917.855,95.437,540.713,538.727,0.0
52091.0,STARLINK-3713,PAYLOAD,2024-05-18 19:18:20,15.08846911,0.0001447,53.2147,171.4598,84.0372,276.0785,5.2262e-05,5.44e-06,0.0,0 STARLINK-3713,1 52091U 22029D   24139.80440786  .00000544  00000-0  52262-4 0  9992,2 52091  53.2147 171.4598 0001447  84.0372 276.0785 15.08846911121031,6917.859,95.437,540.725,538.723,0.0
52091.0,STARLINK-3713,PAYLOAD,2024-05-19 09:36:49,15.08831358,0.0001572,53.2153,168.7833,83.3792,276.7379,-0.00021556,-3.716e-05,0.0,0 STARLINK-3713,1 52091U 22029D   24140.40057648 -.00003716  00000-0 -21556-3 0  9998,2 52091  53.2153 168.7833 0001572  83.3792 276.7379 15.08831358121121,6917.907,95.438,540.859,538.684,0.0
52091.0,STARLINK-3713,PAYLOAD,2024-05-20 07:52:13,15.08840032,0.0001446,53.2149,164.6201,87.9108,272.2049,0.00012979,1.778e-05,0.0,0 STARLINK-3713,1 52091U 22029D   24141.32793701  .00001778  00000-0  12979-3 0  9990,2 52091  53.2149 164.6201 0001446  87.9108 272.2049 15.08840032121260,6917.88,95.438,540.746,538.745,0.0
52091.0,STARLINK-3713,PAYLOAD,2024-05-21 07:43:00,15.08841641,0.0001365,53.2144,160.1595,86.7478,273.367,0.00019132,2.758e-05,0.0,0 STARLINK-3713,1 52091U 22029D   24142.32153769  .00002758  00000-0  19132-3 0  9992,2 52091  53.2144 160.1595 0001365  86.7478 273.3670 15.08841641121415,6917.875,95.437,540.685,538.796,0.0
52091.0,STARLINK-3713,PAYLOAD,2024-05-22 04:23:01,15.08842955,0.0001468,53.215,156.2928,97.2107,262.9052,8.5321e-05,1.07e-05,0.0,0 STARLINK-3713,1 52091U 22029D   24143.18265606  .00001070  00000-0  85321-4 0  9991,2 52091  53.2150 156.2928 0001468  97.2107 262.9052 15.08842955121549,6917.871,95.437,540.752,538.721,0.0
52091.0,STARLINK-3713,PAYLOAD,2024-05-22 10:44:34,15.08842017,0.0001414,53.216,155.1034,97.8547,262.2605,6.3699e-05,7.26e-06,0.0,0 STARLINK-3713,1 52091U 22029D   24143.44761589  .00000726  00000-0  63699-4 0  9992,2 52091  53.2160 155.1034 0001414  97.8547 262.2605 15.08842017121581,6917.874,95.437,540.717,538.761,0.0
52091.0,STARLINK-3713,PAYLOAD,2024-05-23 04:13:48,15.08836097,0.0001433,53.216,151.8316,105.4601,254.655,3.5551e-05,2.78e-06,0.0,0 STARLINK-3713,1 52091U 22029D   24144.17625922  .00000278  00000-0  35551-4 0  9991,2 52091  53.2160 151.8316 0001433 105.4601 254.6550 15.08836097121692,6917.892,95.438,540.749,538.766,0.0
52091.0,STARLINK-3713,PAYLOAD,2024-05-23 10:35:21,15.08833733,0.0001376,53.2159,150.6427,103.1013,257.0132,1.6226e-06,-2.62e-06,0.0,0 STARLINK-3713,1 52091U 22029D   24144.44122196 -.00000262  00000-0  16226-5 0  9999,2 52091  53.2159 150.6427 0001376 103.1013 257.0132 15.08833733121730,6917.9,95.438,540.716,538.813,0.0
52091.0,STARLINK-3713,PAYLOAD,2024-05-24 08:50:45,15.08841202,0.0001282,53.2158,146.4802,92.1846,267.9293,6.1024e-05,6.83e-06,0.0,0 STARLINK-3713,1 52091U 22029D   24145.36857664  .00000683  00000-0  61024-4 0  9997,2 52091  53.2158 146.4802 0001282  92.1846 267.9293 15.08841202121879,6917.877,95.437,540.629,538.855,0.0
52091.0,STARLINK-3713,PAYLOAD,2024-05-25 03:55:23,15.08830929,0.0001325,53.2162,142.9129,89.7941,270.3203,5.1658e-05,5.34e-06,0.0,0 STARLINK-3713,1 52091U 22029D   24146.16346537  .00000534  00000-0  51658-4 0  9995,2 52091  53.2162 142.9129 0001325  89.7941 270.3203 15.08830929121999,6917.908,95.438,540.69,538.856,0.0
52091.0,STARLINK-3713,PAYLOAD,2024-05-25 10:16:56,15.0882796,0.0001248,53.2158,141.7227,85.5984,274.5151,1.83e-05,3e-08,0.0,0 STARLINK-3713,1 52091U 22029D   24146.42842967  .00000003  00000-0  18300-4 0  9990,2 52091  53.2158 141.7227 0001248  85.5984 274.5151 15.08827960122030,6917.917,95.438,540.646,538.919,0.0
52091.0,STARLINK-3713,PAYLOAD,2024-05-26 08:32:19,15.08837622,0.0001224,53.2155,137.5599,88.5473,271.5659,2.6272e-05,1.3e-06,0.0,0 STARLINK-3713,1 52091U 22029D   24147.35578696  .00000130  00000-0  26272-4 0  9996,2 52091  53.2155 137.5599 0001224  88.5473 271.5659 15.08837622122173,6917.888,95.438,540.599,538.906,0.0
52091.0,STARLINK-3713,PAYLOAD,2024-05-26 22:50:48,15.0883638,0.0001229,53.2164,134.8835,81.8882,278.2249,0.0001236,1.68e-05,0.0,0 STARLINK-3713,1 52091U 22029D   24147.95194561  .00001680  00000-0  12360-3 0  9990,2 52091  53.2164 134.8835 0001229  81.8882 278.2249 15.08836380122260,6917.891,95.438,540.607,538.906,0.0
52091.0,STARLINK-3713,PAYLOAD,2024-05-27 06:47:43,15.08838376,0.0001268,53.2158,133.396,84.0245,276.0892,0.00013199,1.813e-05,0.0,0 STARLINK-3713,1 52091U 22029D   24148.28314500  .00001813  00000-0  13199-3 0  9993,2 52091  53.2158 133.3960 0001268  84.0245 276.0892 15.08838376122310,6917.885,95.438,540.628,538.873,0.0
52091.0,STARLINK-3713,PAYLOAD,2024-05-29 04:53:54,15.08842949,0.0001322,53.2165,124.7717,91.8916,268.2228,2.583e-05,1.23e-06,0.0,0 STARLINK-3713,1 52091U 22029D   24150.20410222  .00000123  00000-0  25830-4 0  9995,2 52091  53.2165 124.7717 0001322  91.8916 268.2228 15.08842949122603,6917.871,95.437,540.651,538.822,0.0
52091.0,STARLINK-3713,PAYLOAD,2024-05-29 08:04:40,15.08842888,0.0001355,53.2164,124.1771,87.4018,272.7129,2.0293e-05,3.5e-07,0.0,0 STARLINK-3713,1 52091U 22029D   24150.33658231  .00000035  00000-0  20293-4 0  9993,2 52091  53.2164 124.1771 0001355  87.4018 272.7129 15.08842888122620,6917.872,95.437,540.674,538.799,0.0
